<?xml version="1.0" encoding="UTF-8"?>
<gpx version="1.1" creator="sample" xmlns="http://www.topografix.com/GPX/1/1"><trk><name>西尾根 West ridge 6/5</name><trkseg><trkpt lat="35.06" lon="135.815"><ele>780</ele></trkpt><trkpt lat="35.0605" lon="135.81575"><ele>784</ele></trkpt><trkpt lat="35.061" lon="135.8165"><ele>788</ele></trkpt><trkpt lat="35.0615" lon="135.81725"><ele>792</ele></trkpt><trkpt lat="35.062" lon="135.818"><ele>796</ele></trkpt><trkpt lat="35.0625" lon="135.81875"><ele>800</ele></trkpt><trkpt lat="35.063" lon="135.8195"><ele>804</ele></trkpt><trkpt lat="35.0635" lon="135.82025"><ele>808</ele></trkpt><trkpt lat="35.064" lon="135.821"><ele>812</ele></trkpt><trkpt lat="35.0645" lon="135.82175"><ele>816</ele></trkpt><trkpt lat="35.065" lon="135.8225"><ele>820</ele></trkpt><trkpt lat="35.0655" lon="135.82325"><ele>824</ele></trkpt><trkpt lat="35.066" lon="135.824"><ele>828</ele></trkpt><trkpt lat="35.0665" lon="135.82475"><ele>832</ele></trkpt><trkpt lat="35.067" lon="135.8255"><ele>836</ele></trkpt><trkpt lat="35.0675" lon="135.82625"><ele>840</ele></trkpt><trkpt lat="35.068" lon="135.827"><ele>844</ele></trkpt><trkpt lat="35.0685" lon="135.82775"><ele>848</ele></trkpt><trkpt lat="35.069" lon="135.8285"><ele>852</ele></trkpt><trkpt lat="35.0695" lon="135.82925"><ele>856</ele></trkpt><trkpt lat="35.07" lon="135.83"><ele>860</ele></trkpt><trkpt lat="35.0705" lon="135.83075"><ele>864</ele></trkpt><trkpt lat="35.071" lon="135.8315"><ele>868</ele></trkpt><trkpt lat="35.0715" lon="135.83225"><ele>872</ele></trkpt><trkpt lat="35.072" lon="135.833"><ele>876</ele></trkpt></trkseg></trk></gpx>
