<?xml version="1.0" encoding="UTF-8"?>
<gpx version="1.1" creator="sample" xmlns="http://www.topografix.com/GPX/1/1"><trk><name>東尾根 East ridge 6/6</name><trkseg><trkpt lat="35.072" lon="135.833"><ele>876</ele></trkpt><trkpt lat="35.07254" lon="135.83379"><ele>880</ele></trkpt><trkpt lat="35.07308" lon="135.83458"><ele>885</ele></trkpt><trkpt lat="35.07362" lon="135.83537"><ele>889</ele></trkpt><trkpt lat="35.07417" lon="135.83617"><ele>893</ele></trkpt><trkpt lat="35.07471" lon="135.83696"><ele>898</ele></trkpt><trkpt lat="35.07525" lon="135.83775"><ele>902</ele></trkpt><trkpt lat="35.07579" lon="135.83854"><ele>906</ele></trkpt><trkpt lat="35.07633" lon="135.83933"><ele>911</ele></trkpt><trkpt lat="35.07688" lon="135.84013"><ele>915</ele></trkpt><trkpt lat="35.07742" lon="135.84092"><ele>919</ele></trkpt><trkpt lat="35.07796" lon="135.84171"><ele>924</ele></trkpt><trkpt lat="35.0785" lon="135.8425"><ele>928</ele></trkpt><trkpt lat="35.07904" lon="135.84329"><ele>932</ele></trkpt><trkpt lat="35.07958" lon="135.84408"><ele>937</ele></trkpt><trkpt lat="35.08013" lon="135.84488"><ele>941</ele></trkpt><trkpt lat="35.08067" lon="135.84567"><ele>945</ele></trkpt><trkpt lat="35.08121" lon="135.84646"><ele>950</ele></trkpt><trkpt lat="35.08175" lon="135.84725"><ele>954</ele></trkpt><trkpt lat="35.08229" lon="135.84804"><ele>958</ele></trkpt><trkpt lat="35.08283" lon="135.84883"><ele>963</ele></trkpt><trkpt lat="35.08338" lon="135.84963"><ele>967</ele></trkpt><trkpt lat="35.08392" lon="135.85042"><ele>971</ele></trkpt><trkpt lat="35.08446" lon="135.85121"><ele>976</ele></trkpt><trkpt lat="35.085" lon="135.852"><ele>980</ele></trkpt></trkseg></trk></gpx>
