<?xml version="1.0" encoding="UTF-8"?>
<gpx version="1.1" creator="sample" xmlns="http://www.topografix.com/GPX/1/1"><trk><name>東尾根 再捜索 East repeat 6/6</name><trkseg><trkpt lat="35.073" lon="135.834"><ele>884</ele></trkpt><trkpt lat="35.07355" lon="135.83485"><ele>888</ele></trkpt><trkpt lat="35.0741" lon="135.8357"><ele>893</ele></trkpt><trkpt lat="35.07465" lon="135.83655"><ele>897</ele></trkpt><trkpt lat="35.0752" lon="135.8374"><ele>902</ele></trkpt><trkpt lat="35.07575" lon="135.83825"><ele>906</ele></trkpt><trkpt lat="35.0763" lon="135.8391"><ele>910</ele></trkpt><trkpt lat="35.07685" lon="135.83995"><ele>915</ele></trkpt><trkpt lat="35.0774" lon="135.8408"><ele>919</ele></trkpt><trkpt lat="35.07795" lon="135.84165"><ele>924</ele></trkpt><trkpt lat="35.0785" lon="135.8425"><ele>928</ele></trkpt><trkpt lat="35.07905" lon="135.84335"><ele>932</ele></trkpt><trkpt lat="35.0796" lon="135.8442"><ele>937</ele></trkpt><trkpt lat="35.08015" lon="135.84505"><ele>941</ele></trkpt><trkpt lat="35.0807" lon="135.8459"><ele>946</ele></trkpt><trkpt lat="35.08125" lon="135.84675"><ele>950</ele></trkpt><trkpt lat="35.0818" lon="135.8476"><ele>954</ele></trkpt><trkpt lat="35.08235" lon="135.84845"><ele>959</ele></trkpt><trkpt lat="35.0829" lon="135.8493"><ele>963</ele></trkpt><trkpt lat="35.08345" lon="135.85015"><ele>968</ele></trkpt><trkpt lat="35.084" lon="135.851"><ele>972</ele></trkpt></trkseg></trk></gpx>
